STARLINK-11224 [DTC]    
1 60304U 24133D   26086.19991922 -.00017753  00000+0 -14152-3 0  9990
2 60304  53.1599  59.9507 0000527  70.2609 289.8466 15.69790931 96569
STARLINK-11115 [DTC]    
1 60305U 24133E   26086.64070885 -.00000939  00000+0 -28933-5 0  9999
2 60305  53.1592  57.7248 0001094  80.3186 279.7955 15.69705865 96555
STARLINK-11109 [DTC]    
1 60306U 24133F   26086.89047679  .00003313  00000+0  32225-4 0  9997
2 60306  53.1592  56.4330 0001021  88.4730 271.6405 15.69680411 96592
STARLINK-11223 [DTC]    
1 60307U 24133G   26086.62598769  .00010663  00000+0  92760-4 0  9996
2 60307  53.1574  57.6227 0001352 106.1501 253.9666 15.69710388 96557
STARLINK-11192 [DTC]    
1 60308U 24133H   26086.88557899  .00009706  00000+0  84919-4 0  9997
2 60308  53.1582  56.4001 0001149  84.1700 275.9449 15.69698387 96595
STARLINK-11213 [DTC]    
1 60309U 24133J   26086.62108594 -.00002749  00000+0 -17845-4 0  9990
2 60309  53.1595  57.5878 0000706  86.5518 273.5581 15.69713807 96557
STARLINK-11200 [DTC]    
1 60310U 24133K   26086.61617675 -.00000122  00000+0  38476-5 0  9992
2 60310  53.1584  57.5571 0000884  76.7195 283.3921 15.69705950 96553
STARLINK-11206 [DTC]    
1 60312U 24133M   26086.22445027  .00003752  00000+0  35819-4 0  9999
2 60312  53.1595  60.1085 0001261  93.6966 266.4196 15.69708107 96486
STARLINK-11205 [DTC]    
1 60313U 24133N   26086.21954408  .00008912  00000+0  78316-4 0  9999
2 60313  53.1575  60.0743 0001176  70.3613 289.7532 15.69717749 96485
STARLINK-32191          
1 60314U 24133P   26086.72464350  .00000384  00000+0  25081-4 0  9994
2 60314  53.1600 213.1402 0001217 102.1351 257.9786 15.30203738 94401
STARLINK-32194          
1 60315U 24133Q   26086.73943162 -.00001540  00000+0 -39899-4 0  9998
2 60315  53.1613 213.2361 0001099  84.3028 275.8098 15.30178612 94408
STARLINK-32192          
1 60316U 24133R   26086.83311506 -.00000497  00000+0 -46707-5 0  9998
2 60316  53.1598 212.3989 0001102  31.7097 328.3970 15.30199691 94519
STARLINK-32189          
1 60317U 24133S   26086.73731284 -.00001793  00000+0 -48425-4 0  9995
2 60317  53.1600 213.2210 0001145  88.7760 271.3372 15.30191608 94497
STARLINK-32190          
1 60318U 24133T   26086.72782374 -.00001816  00000+0 -49224-4 0  9995
2 60318  53.1620 213.1587 0001138  84.1772 275.9359 15.30178276 94403
STARLINK-32182          
1 60319U 24133U   26086.67305877 -.00001317  00000+0 -32367-4 0  9995
2 60319  53.1628 213.5337 0001102  88.2955 271.8172 15.30181430 94390
STARLINK-32199          
1 60320U 24133V   26086.73098233 -.00001230  00000+0 -29421-4 0  9990
2 60320  53.1599 213.1783 0001270 104.6647 255.4494 15.30187767 94403
