[{"OBJECT_NAME":"STARLINK-11224 [DTC]","OBJECT_ID":"2024-133D","EPOCH":"2026-03-27T04:47:53.020608","MEAN_MOTION":15.69790931,"ECCENTRICITY":5.279e-5,"INCLINATION":53.1599,"RA_OF_ASC_NODE":59.9507,"ARG_OF_PERICENTER":70.2609,"MEAN_ANOMALY":289.8466,"EPHEMERIS_TYPE":0,"CLASSIFICATION_TYPE":"U","NORAD_CAT_ID":60304,"ELEMENT_SET_NO":999,"REV_AT_EPOCH":9656,"BSTAR":-0.00014151848,"MEAN_MOTION_DOT":-0.00017753,"MEAN_MOTION_DDOT":0},{"OBJECT_NAME":"STARLINK-11115 [DTC]","OBJECT_ID":"2024-133E","EPOCH":"2026-03-27T15:22:37.244640","MEAN_MOTION":15.69705865,"ECCENTRICITY":0.0001094,"INCLINATION":53.1592,"RA_OF_ASC_NODE":57.7248,"ARG_OF_PERICENTER":80.3186,"MEAN_ANOMALY":279.7955,"EPHEMERIS_TYPE":0,"CLASSIFICATION_TYPE":"U","NORAD_CAT_ID":60305,"ELEMENT_SET_NO":999,"REV_AT_EPOCH":9655,"BSTAR":-2.8933e-6,"MEAN_MOTION_DOT":-9.39e-6,"MEAN_MOTION_DDOT":0},{"OBJECT_NAME":"STARLINK-11109 [DTC]","OBJECT_ID":"2024-133F","EPOCH":"2026-03-27T21:22:17.194656","MEAN_MOTION":15.69680411,"ECCENTRICITY":0.0001021,"INCLINATION":53.1592,"RA_OF_ASC_NODE":56.433,"ARG_OF_PERICENTER":88.473,"MEAN_ANOMALY":271.6405,"EPHEMERIS_TYPE":0,"CLASSIFICATION_TYPE":"U","NORAD_CAT_ID":60306,"ELEMENT_SET_NO":999,"REV_AT_EPOCH":9659,"BSTAR":3.2225e-5,"MEAN_MOTION_DOT":3.313e-5,"MEAN_MOTION_DDOT":0},{"OBJECT_NAME":"STARLINK-11223 [DTC]","OBJECT_ID":"2024-133G","EPOCH":"2026-03-27T15:01:25.336416","MEAN_MOTION":15.69710388,"ECCENTRICITY":0.0001352,"INCLINATION":53.1574,"RA_OF_ASC_NODE":57.6227,"ARG_OF_PERICENTER":106.1501,"MEAN_ANOMALY":253.9666,"EPHEMERIS_TYPE":0,"CLASSIFICATION_TYPE":"U","NORAD_CAT_ID":60307,"ELEMENT_SET_NO":999,"REV_AT_EPOCH":9655,"BSTAR":9.276e-5,"MEAN_MOTION_DOT":0.00010663,"MEAN_MOTION_DDOT":0},{"OBJECT_NAME":"STARLINK-11192 [DTC]","OBJECT_ID":"2024-133H","EPOCH":"2026-03-27T21:15:14.024736","MEAN_MOTION":15.69698387,"ECCENTRICITY":0.0001149,"INCLINATION":53.1582,"RA_OF_ASC_NODE":56.4001,"ARG_OF_PERICENTER":84.17,"MEAN_ANOMALY":275.9449,"EPHEMERIS_TYPE":0,"CLASSIFICATION_TYPE":"U","NORAD_CAT_ID":60308,"ELEMENT_SET_NO":999,"REV_AT_EPOCH":9659,"BSTAR":8.4919e-5,"MEAN_MOTION_DOT":9.706e-5,"MEAN_MOTION_DDOT":0},{"OBJECT_NAME":"STARLINK-11213 [DTC]","OBJECT_ID":"2024-133J","EPOCH":"2026-03-27T14:54:21.825216","MEAN_MOTION":15.69713807,"ECCENTRICITY":7.06e-5,"INCLINATION":53.1595,"RA_OF_ASC_NODE":57.5878,"ARG_OF_PERICENTER":86.5518,"MEAN_ANOMALY":273.5581,"EPHEMERIS_TYPE":0,"CLASSIFICATION_TYPE":"U","NORAD_CAT_ID":60309,"ELEMENT_SET_NO":999,"REV_AT_EPOCH":9655,"BSTAR":-1.7845e-5,"MEAN_MOTION_DOT":-2.749e-5,"MEAN_MOTION_DDOT":0},{"OBJECT_NAME":"STARLINK-11200 [DTC]","OBJECT_ID":"2024-133K","EPOCH":"2026-03-27T14:47:17.671200","MEAN_MOTION":15.6970595,"ECCENTRICITY":8.84e-5,"INCLINATION":53.1584,"RA_OF_ASC_NODE":57.5571,"ARG_OF_PERICENTER":76.7195,"MEAN_ANOMALY":283.3921,"EPHEMERIS_TYPE":0,"CLASSIFICATION_TYPE":"U","NORAD_CAT_ID":60310,"ELEMENT_SET_NO":999,"REV_AT_EPOCH":9655,"BSTAR":3.8476e-6,"MEAN_MOTION_DOT":-1.22e-6,"MEAN_MOTION_DDOT":0},{"OBJECT_NAME":"STARLINK-11206 [DTC]","OBJECT_ID":"2024-133M","EPOCH":"2026-03-27T05:23:12.503328","MEAN_MOTION":15.69708107,"ECCENTRICITY":0.00012619,"INCLINATION":53.1595,"RA_OF_ASC_NODE":60.1085,"ARG_OF_PERICENTER":93.6966,"MEAN_ANOMALY":266.4196,"EPHEMERIS_TYPE":0,"CLASSIFICATION_TYPE":"U","NORAD_CAT_ID":60312,"ELEMENT_SET_NO":999,"REV_AT_EPOCH":9648,"BSTAR":3.5818555e-5,"MEAN_MOTION_DOT":3.752e-5,"MEAN_MOTION_DDOT":0},{"OBJECT_NAME":"STARLINK-11205 [DTC]","OBJECT_ID":"2024-133N","EPOCH":"2026-03-27T05:16:08.608512","MEAN_MOTION":15.69717749,"ECCENTRICITY":0.00011768,"INCLINATION":53.1575,"RA_OF_ASC_NODE":60.0743,"ARG_OF_PERICENTER":70.3613,"MEAN_ANOMALY":289.7532,"EPHEMERIS_TYPE":0,"CLASSIFICATION_TYPE":"U","NORAD_CAT_ID":60313,"ELEMENT_SET_NO":999,"REV_AT_EPOCH":9648,"BSTAR":7.8316327e-5,"MEAN_MOTION_DOT":8.912e-5,"MEAN_MOTION_DDOT":0},{"OBJECT_NAME":"STARLINK-32191","OBJECT_ID":"2024-133P","EPOCH":"2026-03-27T17:23:29.198400","MEAN_MOTION":15.30203738,"ECCENTRICITY":0.0001217,"INCLINATION":53.16,"RA_OF_ASC_NODE":213.1402,"ARG_OF_PERICENTER":102.1351,"MEAN_ANOMALY":257.9786,"EPHEMERIS_TYPE":0,"CLASSIFICATION_TYPE":"U","NORAD_CAT_ID":60314,"ELEMENT_SET_NO":999,"REV_AT_EPOCH":9440,"BSTAR":2.5081e-5,"MEAN_MOTION_DOT":3.84e-6,"MEAN_MOTION_DDOT":0},{"OBJECT_NAME":"STARLINK-32194","OBJECT_ID":"2024-133Q","EPOCH":"2026-03-27T17:44:46.891968","MEAN_MOTION":15.30178612,"ECCENTRICITY":0.0001099,"INCLINATION":53.1613,"RA_OF_ASC_NODE":213.2361,"ARG_OF_PERICENTER":84.3028,"MEAN_ANOMALY":275.8098,"EPHEMERIS_TYPE":0,"CLASSIFICATION_TYPE":"U","NORAD_CAT_ID":60315,"ELEMENT_SET_NO":999,"REV_AT_EPOCH":9440,"BSTAR":-3.9899e-5,"MEAN_MOTION_DOT":-1.54e-5,"MEAN_MOTION_DDOT":0},{"OBJECT_NAME":"STARLINK-32192","OBJECT_ID":"2024-133R","EPOCH":"2026-03-27T19:59:41.141184","MEAN_MOTION":15.30199691,"ECCENTRICITY":0.0001102,"INCLINATION":53.1598,"RA_OF_ASC_NODE":212.3989,"ARG_OF_PERICENTER":31.7097,"MEAN_ANOMALY":328.397,"EPHEMERIS_TYPE":0,"CLASSIFICATION_TYPE":"U","NORAD_CAT_ID":60316,"ELEMENT_SET_NO":999,"REV_AT_EPOCH":9451,"BSTAR":-4.6707e-6,"MEAN_MOTION_DOT":-4.97e-6,"MEAN_MOTION_DDOT":0},{"OBJECT_NAME":"STARLINK-32189","OBJECT_ID":"2024-133S","EPOCH":"2026-03-27T17:41:43.829376","MEAN_MOTION":15.30191608,"ECCENTRICITY":0.0001145,"INCLINATION":53.16,"RA_OF_ASC_NODE":213.221,"ARG_OF_PERICENTER":88.776,"MEAN_ANOMALY":271.3372,"EPHEMERIS_TYPE":0,"CLASSIFICATION_TYPE":"U","NORAD_CAT_ID":60317,"ELEMENT_SET_NO":999,"REV_AT_EPOCH":9449,"BSTAR":-4.8425e-5,"MEAN_MOTION_DOT":-1.793e-5,"MEAN_MOTION_DDOT":0},{"OBJECT_NAME":"STARLINK-32190","OBJECT_ID":"2024-133T","EPOCH":"2026-03-27T17:28:03.971136","MEAN_MOTION":15.30178276,"ECCENTRICITY":0.0001138,"INCLINATION":53.162,"RA_OF_ASC_NODE":213.1587,"ARG_OF_PERICENTER":84.1772,"MEAN_ANOMALY":275.9359,"EPHEMERIS_TYPE":0,"CLASSIFICATION_TYPE":"U","NORAD_CAT_ID":60318,"ELEMENT_SET_NO":999,"REV_AT_EPOCH":9440,"BSTAR":-4.9224e-5,"MEAN_MOTION_DOT":-1.816e-5,"MEAN_MOTION_DDOT":0},{"OBJECT_NAME":"STARLINK-32182","OBJECT_ID":"2024-133U","EPOCH":"2026-03-27T16:09:12.277728","MEAN_MOTION":15.3018143,"ECCENTRICITY":0.0001102,"INCLINATION":53.1628,"RA_OF_ASC_NODE":213.5337,"ARG_OF_PERICENTER":88.2955,"MEAN_ANOMALY":271.8172,"EPHEMERIS_TYPE":0,"CLASSIFICATION_TYPE":"U","NORAD_CAT_ID":60319,"ELEMENT_SET_NO":999,"REV_AT_EPOCH":9439,"BSTAR":-3.2367e-5,"MEAN_MOTION_DOT":-1.317e-5,"MEAN_MOTION_DDOT":0},{"OBJECT_NAME":"STARLINK-32199","OBJECT_ID":"2024-133V","EPOCH":"2026-03-27T17:32:36.873312","MEAN_MOTION":15.30187767,"ECCENTRICITY":0.000127,"INCLINATION":53.1599,"RA_OF_ASC_NODE":213.1783,"ARG_OF_PERICENTER":104.6647,"MEAN_ANOMALY":255.4494,"EPHEMERIS_TYPE":0,"CLASSIFICATION_TYPE":"U","NORAD_CAT_ID":60320,"ELEMENT_SET_NO":999,"REV_AT_EPOCH":9440,"BSTAR":-2.9421e-5,"MEAN_MOTION_DOT":-1.23e-5,"MEAN_MOTION_DDOT":0}]
